NORAD_CAT_ID,OBJECT_NAME,OBJECT_TYPE,EPOCH,MEAN_MOTION,ECCENTRICITY,INCLINATION,RA_OF_ASC_NODE,ARG_OF_PERICENTER,MEAN_ANOMALY,BSTAR,MEAN_MOTION_DOT,MEAN_MOTION_DDOT,TLE_LINE0,TLE_LINE1,TLE_LINE2,SEMIMAJOR_AXIS,PERIOD,APOGEE,PERIGEE,DECAYED
50201.0,STARLINK-3255,PAYLOAD,2024-02-21 13:16:54,15.08835549,0.0001557,53.2189,353.1562,82.8485,277.2684,0.0001134,1.517e-05,0.0,0 STARLINK-3255,1 50201U 21125AX  24052.55340446  .00001517  00000-0  11340-3 0  9999,2 50201  53.2189 353.1562 0001557  82.8485 277.2684 15.08835549123949,6917.894,95.438,540.836,538.682,0.0
50201.0,STARLINK-3255,PAYLOAD,2024-02-22 03:35:23,15.0882926,0.000158,53.2195,350.4767,92.6455,267.4718,3.8734e-05,3.28e-06,0.0,0 STARLINK-3255,1 50201U 21125AX  24053.14957625  .00000328  00000-0  38734-4 0  9994,2 50201  53.2195 350.4767 0001580  92.6455 267.4718 15.08829260123554,6917.913,95.438,540.871,538.685,0.0
50201.0,STARLINK-3255,PAYLOAD,2024-02-22 13:07:41,15.08840361,0.00016,53.2199,348.6932,92.721,267.3966,0.00013559,1.871e-05,0.0,0 STARLINK-3255,1 50201U 21125AX  24053.54700941  .00001871  00000-0  13559-3 0  9996,2 50201  53.2199 348.6932 0001600  92.7210 267.3966 15.08840361124093,6917.879,95.438,540.851,538.637,0.0
50201.0,STARLINK-3255,PAYLOAD,2024-02-23 01:50:46,15.08856472,0.0001436,53.2179,346.3137,93.9744,266.1412,0.00031013,4.653e-05,0.0,0 STARLINK-3255,1 50201U 21125AX  24054.07692150  .00004653  00000-0  31013-3 0  9993,2 50201  53.2179 346.3137 0001436  93.9744 266.1412 15.08856472123693,6917.83,95.437,540.688,538.702,0.0
50201.0,STARLINK-3255,PAYLOAD,2024-02-23 12:58:27,15.0885014,0.0001128,53.2204,344.2297,124.4326,235.6773,0.00025575,3.786e-05,0.0,0 STARLINK-3255,1 50201U 21125AX  24054.54060141  .00003786  00000-0  25575-3 0  9996,2 50201  53.2204 344.2297 0001128 124.4326 235.6773 15.08850140124249,6917.849,95.437,540.495,538.934,0.0
50201.0,STARLINK-3255,PAYLOAD,2024-02-23 22:30:47,15.08847878,0.0001684,53.2177,342.4473,109.7316,250.3858,0.00025003,3.694e-05,0.0,0 STARLINK-3255,1 50201U 21125AX  24054.93804423  .00003694  00000-0  25003-3 0  9992,2 50201  53.2177 342.4473 0001684 109.7316 250.3858 15.08847878124305,6917.856,95.437,540.886,538.556,0.0
50201.0,STARLINK-3255,PAYLOAD,2024-02-24 01:41:33,15.08849886,0.0001581,53.2179,341.8549,100.6791,259.4379,0.00018596,2.674e-05,0.0,0 STARLINK-3255,1 50201U 21125AX  24055.07052318  .00002674  00000-0  18596-3 0  9992,2 50201  53.2179 341.8549 0001581 100.6791 259.4379 15.08849886123844,6917.85,95.437,540.809,538.621,0.0
50201.0,STARLINK-3255,PAYLOAD,2024-02-24 04:52:19,15.08854218,0.0001615,53.2186,341.2575,113.8606,246.2555,0.00025578,3.787e-05,0.0,0 STARLINK-3255,1 50201U 21125AX  24055.20300027  .00003787  00000-0  25578-3 0  9994,2 50201  53.2186 341.2575 0001615 113.8606 246.2555 15.08854218124345,6917.837,95.437,540.819,538.585,0.0
50201.0,STARLINK-3255,PAYLOAD,2024-02-25 04:43:06,15.088429,0.0001992,53.2193,336.795,127.4022,232.7152,7.6089e-05,9.23e-06,0.0,0 STARLINK-3255,1 50201U 21125AX  24056.19660060  .00000923  00000-0  76089-4 0  9992,2 50201  53.2193 336.7950 0001992 127.4022 232.7152 15.08842900124012,6917.872,95.437,541.115,538.358,0.0
50201.0,STARLINK-3255,PAYLOAD,2024-02-25 11:04:38,15.0884468,0.0001525,53.2174,335.6101,88.7035,271.4132,5.7025e-05,6.2e-06,0.0,0 STARLINK-3255,1 50201U 21125AX  24056.46156157  .00000620  00000-0  57025-4 0  9992,2 50201  53.2174 335.6101 0001525  88.7035 271.4132 15.08844680124534,6917.866,95.437,540.786,538.676,0.0
50201.0,STARLINK-3255,PAYLOAD,2024-02-25 22:12:20,15.0884453,0.000153,53.2183,333.5267,101.3101,258.8063,0.00016404,2.324e-05,0.0,0 STARLINK-3255,1 50201U 21125AX  24056.92524098  .00002324  00000-0  16404-3 0  9994,2 50201  53.2183 333.5267 0001530 101.3101 258.8063 15.08844530124600,6917.867,95.437,540.79,538.673,0.0
50201.0,STARLINK-3255,PAYLOAD,2024-02-26 01:23:07,15.08829506,0.0001548,53.2184,332.9324,94.3466,265.7703,0.0005398,8.311e-05,0.0,0 STARLINK-3255,1 50201U 21125AX  24057.05772861  .00008311  00000-0  53980-3 0  9994,2 50201  53.2184 332.9324 0001548  94.3466 265.7703 15.08829506124145,6917.912,95.438,540.848,538.707,0.0
50201.0,STARLINK-3255,PAYLOAD,2024-02-26 04:33:53,15.08843987,0.000145,53.2178,332.3393,89.6257,270.4901,0.00011443,1.534e-05,0.0,0 STARLINK-3255,1 50201U 21125AX  24057.19020055  .00001534  00000-0  11443-3 0  9998,2 50201  53.2178 332.3393 0001450  89.6257 270.4901 15.08843987124169,6917.868,95.437,540.736,538.73,0.0
50201.0,STARLINK-3255,PAYLOAD,2024-02-26 22:03:08,15.08831187,0.0001521,53.2185,329.0663,94.1943,265.9223,-5.8416e-05,-1.217e-05,0.0,0 STARLINK-3255,1 50201U 21125AX  24057.91884971 -.00001217  00000-0 -58416-4 0  9995,2 50201  53.2185 329.0663 0001521  94.1943 265.9223 15.08831187124752,6917.907,95.438,540.825,538.72,0.0
50201.0,STARLINK-3255,PAYLOAD,2024-02-27 12:21:36,15.08836634,0.0001408,53.2169,326.3935,89.7052,270.4102,6.1428e-05,6.9e-06,0.0,0 STARLINK-3255,1 50201U 21125AX  24058.51500917  .00000690  00000-0  61428-4 0  9996,2 50201  53.2169 326.3935 0001408  89.7052 270.4102 15.08836634124367,6917.891,95.438,540.73,538.782,0.0
50201.0,STARLINK-3255,PAYLOAD,2024-02-27 21:53:55,15.08833801,0.000144,53.2171,324.6095,92.385,267.7307,7.176e-06,-1.74e-06,0.0,0 STARLINK-3255,1 50201U 21125AX  24058.91245204 -.00000174  00000-0  71760-5 0  9994,2 50201  53.2171 324.6095 0001440  92.3850 267.7307 15.08833801124909,6917.899,95.438,540.761,538.768,0.0
50201.0,STARLINK-3255,PAYLOAD,2024-02-28 10:37:00,15.08839802,0.0001379,53.2171,322.23,102.2461,257.8685,0.00010926,1.451e-05,0.0,0 STARLINK-3255,1 50201U 21125AX  24059.44236968  .00001451  00000-0  10926-3 0  9993,2 50201  53.2171 322.2300 0001379 102.2461 257.8685 15.08839802124986,6917.881,95.438,540.7,538.792,0.0
50201.0,STARLINK-3255,PAYLOAD,2024-02-28 21:44:42,15.08840206,0.0001463,53.2185,320.1459,85.2104,274.9055,6.8585e-05,8.04e-06,0.0,0 STARLINK-3255,1 50201U 21125AX  24059.90605301  .00000804  00000-0  68585-4 0  9991,2 50201  53.2185 320.1459 0001463  85.2104 274.9055 15.08840206125051,6917.88,95.438,540.757,538.733,0.0
50201.0,STARLINK-3255,PAYLOAD,2024-02-29 00:55:29,15.08842218,0.0001467,53.2186,319.5512,83.6795,276.4364,7.5331e-05,9.11e-06,0.0,0 STARLINK-3255,1 50201U 21125AX  24060.03853130  .00000911  00000-0  75331-4 0  9998,2 50201  53.2186 319.5512 0001467  83.6795 276.4364 15.08842218124599,6917.874,95.437,540.753,538.724,0.0
50201.0,STARLINK-3255,PAYLOAD,2024-02-29 10:27:47,15.08845042,0.0001625,53.2194,317.7694,85.0551,275.0627,9.6464e-05,1.248e-05,0.0,0 STARLINK-3255,1 50201U 21125AX  24060.43596927  .00001248  00000-0  96464-4 0  9994,2 50201  53.2194 317.7694 0001625  85.0551 275.0627 15.08845042125137,6917.865,95.437,540.854,538.606,0.0
50201.0,STARLINK-3255,PAYLOAD,2024-02-29 21:35:29,15.08841122,0.0001506,53.2187,315.6904,87.7219,272.3946,0.00013969,1.936e-05,0.0,0 STARLINK-3255,1 50201U 21125AX  24060.89965008  .00001936  00000-0  13969-3 0  9996,2 50201  53.2187 315.6904 0001506  87.7219 272.3946 15.08841122125205,6917.877,95.437,540.784,538.7,0.0
50201.0,STARLINK-3255,PAYLOAD,2024-02-29 23:10:53,15.08824058,0.0001487,53.2187,315.3933,80.4701,279.646,0.00041067,6.251e-05,0.0,0 STARLINK-3255,1 50201U 21125AX  24060.96589678  .00006251  00000-0  41067-3 0  9994,2 50201  53.2187 315.3933 0001487  80.4701 279.6460 15.08824058124735,6917.929,95.439,540.823,538.765,0.0
50201.0,STARLINK-3255,PAYLOAD,2024-03-01 10:18:34,15.08844513,0.0001445,53.2174,313.3112,87.7334,272.3824,6.114e-05,6.85e-06,0.0,0 STARLINK-3255,1 50201U 21125AX  24061.42956862  .00000685  00000-0  61140-4 0  9999,2 50201  53.2174 313.3112 0001445  87.7334 272.3824 15.08844513125287,6917.867,95.437,540.731,538.732,0.0
50201.0,STARLINK-3255,PAYLOAD,2024-03-01 21:26:16,15.08837335,0.0001405,53.2171,311.2291,86.9508,273.1645,0.00018859,2.715e-05,0.0,0 STARLINK-3255,1 50201U 21125AX  24061.89324925  .00002715  00000-0  18859-3 0  9993,2 50201  53.2171 311.2291 0001405  86.9508 273.1645 15.08837335125351,6917.889,95.438,540.725,538.782,0.0
50201.0,STARLINK-3255,PAYLOAD,2024-03-01 23:01:39,15.08846165,0.0001433,53.2173,310.9321,84.8624,275.2532,5.6759e-05,6.16e-06,0.0,0 STARLINK-3255,1 50201U 21125AX  24061.95948615  .00000616  00000-0  56759-4 0  9998,2 50201  53.2173 310.9321 0001433  84.8624 275.2532 15.08846165125360,6917.862,95.437,540.718,538.735,0.0
50201.0,STARLINK-3255,PAYLOAD,2024-03-02 19:41:41,15.08830311,0.0001077,53.218,307.0631,95.4272,264.6842,8.4358e-05,1.055e-05,0.0,0 STARLINK-3255,1 50201U 21125AX  24062.82061432  .00001055  00000-0  84358-4 0  9992,2 50201  53.2180 307.0631 0001077  95.4272 264.6842 15.08830311125014,6917.91,95.438,540.52,539.03,0.0
50201.0,STARLINK-3255,PAYLOAD,2024-03-02 21:17:04,15.08828979,0.0001011,53.2183,306.7652,99.9794,260.1312,8.8094e-05,1.114e-05,0.0,0 STARLINK-3255,1 50201U 21125AX  24062.88685485  .00001114  00000-0  88094-4 0  9995,2 50201  53.2183 306.7652 0001011  99.9794 260.1312 15.08828979125506,6917.914,95.438,540.478,539.08,0.0
50201.0,STARLINK-3255,PAYLOAD,2024-03-02 22:52:27,15.08841001,0.0001347,53.2181,306.4687,91.4226,268.6921,-8.5089e-05,-1.642e-05,0.0,0 STARLINK-3255,1 50201U 21125AX  24062.95309282 -.00001642  00000-0 -85089-4 0  9990,2 50201  53.2181 306.4687 0001347  91.4226 268.6921 15.08841001125036,6917.877,95.437,540.674,538.81,0.0
50201.0,STARLINK-3255,PAYLOAD,2024-03-03 21:07:51,15.0883904,0.0001395,53.2183,302.3042,100.2882,259.8267,3.396e-05,2.53e-06,0.0,0 STARLINK-3255,1 50201U 21125AX  24063.88045325  .00000253  00000-0  33960-4 0  9994,2 50201  53.2183 302.3042 0001395 100.2882 259.8267 15.08839040125651,6917.883,95.438,540.713,538.783,0.0
50201.0,STARLINK-3255,PAYLOAD,2024-03-04 08:15:32,15.08845795,0.0001571,53.2186,300.2278,100.2578,259.8591,0.00010263,1.346e-05,0.0,0 STARLINK-3255,1 50201U 21125AX  24064.34412662  .00001346  00000-0  10263-3 0  9992,2 50201  53.2186 300.2278 0001571 100.2578 259.8591 15.08845795125249,6917.863,95.437,540.814,538.641,0.0
